[{"OBJECT_NAME":"STARLINK-31128","OBJECT_ID":"2023-211C","EPOCH":"2026-03-09T02:07:42.880800","MEAN_MOTION":15.27568518,"ECCENTRICITY":6.767e-5,"INCLINATION":43.003,"RA_OF_ASC_NODE":88.5877,"ARG_OF_PERICENTER":265.1154,"MEAN_ANOMALY":94.9621,"EPHEMERIS_TYPE":0,"CLASSIFICATION_TYPE":"U","NORAD_CAT_ID":58669,"ELEMENT_SET_NO":999,"REV_AT_EPOCH":12237,"BSTAR":-5.9898983e-5,"MEAN_MOTION_DOT":-1.909e-5,"MEAN_MOTION_DDOT":0},{"OBJECT_NAME":"HERMES-4","OBJECT_ID":"2025-052BP","EPOCH":"2026-03-09T22:05:58.629408","MEAN_MOTION":15.26796135,"ECCENTRICITY":0.00026523,"INCLINATION":97.4,"RA_OF_ASC_NODE":323.461,"ARG_OF_PERICENTER":154.9526,"MEAN_ANOMALY":205.1842,"EPHEMERIS_TYPE":0,"CLASSIFICATION_TYPE":"U","NORAD_CAT_ID":63833,"ELEMENT_SET_NO":999,"REV_AT_EPOCH":5478,"BSTAR":0.00081237216,"MEAN_MOTION_DOT":0.00021364,"MEAN_MOTION_DDOT":0}]
